{
    "links": {
        "self": "http://www.neowsapp.com/rest/v1/neo/3717068?api_key=iIulBulltgU6a56xZRHN4H3l9WmuAYTsLGpBGhQ2"
    },
    "id": "3717068",
    "neo_reference_id": "3717068",
    "name": "(2015 FU344)",
    "designation": "2015 FU344",
    "nasa_jpl_url": "http://ssd.jpl.nasa.gov/sbdb.cgi?sstr=3717068",
    "absolute_magnitude_h": 31.0,
    "estimated_diameter": {
        "kilometers": {
            "estimated_diameter_min": 0.0016770846,
            "estimated_diameter_max": 0.0037500752
        },
        "meters": {
            "estimated_diameter_min": 1.6770846216,
            "estimated_diameter_max": 3.750075218
        },
        "miles": {
            "estimated_diameter_min": 0.0010420917,
            "estimated_diameter_max": 0.002330188
        },
        "feet": {
            "estimated_diameter_min": 5.50224631,
            "estimated_diameter_max": 12.3033967782
        }
    },
    "is_potentially_hazardous_asteroid": false,
    "close_approach_data": [
        {
            "close_approach_date": "2015-03-16",
            "close_approach_date_full": "2015-Mar-16 05:14",
            "epoch_date_close_approach": 1426482840000,
            "relative_velocity": {
                "kilometers_per_second": "11.063397735",
                "kilometers_per_hour": "39828.2318458992",
                "miles_per_hour": "24747.7143933589"
            },
            "miss_distance": {
                "astronomical": "0.005004685",
                "lunar": "1.946822465",
                "kilometers": "748690.21602095",
                "miles": "465214.52795111"
            },
            "orbiting_body": "Moon"
        },
        {
            "close_approach_date": "2015-03-16",
            "close_approach_date_full": "2015-Mar-16 05:50",
            "epoch_date_close_approach": 1426485000000,
            "relative_velocity": {
                "kilometers_per_second": "10.0092681331",
                "kilometers_per_hour": "36033.3652790376",
                "miles_per_hour": "22389.7318868553"
            },
            "miss_distance": {
                "astronomical": "0.0025530174",
                "lunar": "0.9931237686",
                "kilometers": "381925.965112938",
                "miles": "237317.7901490244"
            },
            "orbiting_body": "Earth"
        }
    ],
    "orbital_data": {
        "orbit_id": "3",
        "orbit_determination_date": "2017-04-06 08:34:36",
        "first_observation_date": "2015-03-17",
        "last_observation_date": "2015-03-18",
        "data_arc_in_days": 1,
        "observations_used": 21,
        "orbit_uncertainty": "8",
        "minimum_orbit_intersection": ".000472455",
        "jupiter_tisserand_invariant": "3.982",
        "epoch_osculation": "2457098.5",
        "eccentricity": ".4908491456909446",
        "semi_major_axis": "1.75146291169393",
        "inclination": ".8957547019236798",
        "ascending_node_longitude": "176.4601953757051",
        "orbital_period": "846.6420697414737",
        "perihelion_distance": ".8917588377795899",
        "perihelion_argument": "311.5724797260021",
        "aphelion_distance": "2.611166985608269",
        "perihelion_time": "2457062.304247313229",
        "mean_anomaly": "15.39076716470808",
        "mean_motion": ".4252092033531097",
        "equinox": "J2000",
        "orbit_class": {
            "orbit_class_type": "APO",
            "orbit_class_description": "Near-Earth asteroid orbits which cross the Earth’s orbit similar to that of 1862 Apollo",
            "orbit_class_range": "a (semi-major axis) > 1.0 AU; q (perihelion) < 1.017 AU"
        }
    },
    "is_sentry_object": false
}